NORAD_CAT_ID,OBJECT_NAME,OBJECT_TYPE,EPOCH,MEAN_MOTION,ECCENTRICITY,INCLINATION,RA_OF_ASC_NODE,ARG_OF_PERICENTER,MEAN_ANOMALY,BSTAR,MEAN_MOTION_DOT,MEAN_MOTION_DDOT,TLE_LINE0,TLE_LINE1,TLE_LINE2,SEMIMAJOR_AXIS,PERIOD,APOGEE,PERIGEE,DECAYED
49160.0,STARLINK-3095,PAYLOAD,2022-03-14 22:00:00,14.98401331,0.0003372,70.0016,4.97,288.0575,103.3551,-0.0059818,-0.00070883,0.0,0 STARLINK-3095,1 49160U 21082AG  22073.91667824 -.00070883  00000-0 -59818-2 0  9991,2 49160  70.0016   4.9700 0003372 288.0575 103.3551 14.98401331  3562,6949.972,96.102,574.181,569.494,0.0
49160.0,STARLINK-3095,PAYLOAD,2022-03-15 00:00:00,14.98393198,0.00034,70.0015,4.7599,289.5097,191.2921,-0.0065338,-0.00077329,0.0,0 STARLINK-3095,1 49160U 21082AG  22074.00001157 -.00077329  00000-0 -65338-2 0  9999,2 49160  70.0015   4.7599 0003400 289.5097 191.2921 14.98393198 29018,6949.996999999999,96.103,574.225,569.499,0.0
49160.0,STARLINK-3095,PAYLOAD,2022-03-15 02:00:01,14.9837055,0.0003418,70.0014,4.5498,291.1608,279.0318,-0.0046215,-0.00054866,0.0,0 STARLINK-3095,1 49160U 21082AG  22074.08334491 -.00054866  00000-0 -46215-2 0  9991,2 49160  70.0014   4.5498 0003418 291.1608 279.0318 14.98370550  3552,6950.066999999999,96.104,574.308,569.557,0.0
49160.0,STARLINK-3095,PAYLOAD,2022-03-15 22:00:00,14.98284366,0.0003365,70.0018,2.4486,287.9985,95.8371,0.0011863,0.00014074,0.0,0 STARLINK-3095,1 49160U 21082AG  22074.91667824  .00014074  00000-0  11863-2 0  9998,2 49160  70.0018   2.4486 0003365 287.9985  95.8371 14.98284366 29147,6950.334,96.11,574.538,569.86,0.0
49160.0,STARLINK-3095,PAYLOAD,2022-03-16 14:00:01,14.98277582,0.0003245,70.0016,0.7678,288.0372,90.6964,0.0049376,0.00059243,0.0,0 STARLINK-3095,1 49160U 21082AG  22075.58334491  .00059243  00000-0  49376-2 0  9990,2 49160  70.0016   0.7678 0003245 288.0372  90.6964 14.98277582  3570,6950.355,96.11,574.475,569.965,0.0
49160.0,STARLINK-3095,PAYLOAD,2022-03-16 20:00:01,14.983209400000002,0.0003197,70.002,0.1376,286.8303,359.9708,0.0027847,0.00033284,0.0,0 STARLINK-3095,1 49160U 21082AG  22075.83334491  .00033284  00000-0  27847-2 0  9994,2 49160  70.0020   0.1376 0003197 286.8303 359.9708 14.98320940  3563,6950.221,96.108,574.308,569.864,0.0
49160.0,STARLINK-3095,PAYLOAD,2022-03-17 06:00:00,14.9833256,0.000333,70.0017,359.0869,292.8165,80.8482,0.0024701,0.00029507,0.0,0 STARLINK-3095,1 49160U 21082AG  22076.25001157  .00029507  00000-0  24701-2 0  9990,2 49160  70.0017 359.0869 0003330 292.8165  80.8482 14.98332560 29348,6950.185,96.107,574.364,569.736,0.0
49160.0,STARLINK-3095,PAYLOAD,2022-03-17 14:00:01,14.98316872,0.0003206,70.0018,358.2465,287.6081,83.5654,0.0044413,0.00053287,0.0,0 STARLINK-3095,1 49160U 21082AG  22076.58334491  .00053287  00000-0  44413-2 0  9990,2 49160  70.0018 358.2465 0003206 287.6081  83.5654 14.98316872  3580,6950.233,96.108,574.327,569.87,0.0
49160.0,STARLINK-3095,PAYLOAD,2022-03-17 22:00:00,14.98377385,0.0003272,70.002,357.4061,287.7203,80.9381,-0.0032332,-0.00038508,0.0,0 STARLINK-3095,1 49160U 21082AG  22076.91667824 -.00038508  00000-0 -32332-2 0  9994,2 49160  70.0020 357.4061 0003272 287.7203  80.9381 14.98377385  3580,6950.045999999999,96.104,574.185,569.637,0.0
49160.0,STARLINK-3095,PAYLOAD,2022-03-18 06:00:00,14.9835792,0.0003418,70.0017,356.5656,292.0728,74.1101,-0.0016316,-0.00019522,0.0,0 STARLINK-3095,1 49160U 21082AG  22077.25001157 -.00019522  00000-0 -16316-2 0  9992,2 49160  70.0017 356.5656 0003418 292.0728  74.1101 14.98357920 29495,6950.107,96.105,574.347,569.596,0.0
49160.0,STARLINK-3095,PAYLOAD,2022-03-18 14:00:01,14.98302143,0.0003342,70.0018,355.7252,286.6966,77.0054,0.0049769,0.00059758,0.0,0 STARLINK-3095,1 49160U 21082AG  22077.58334491  .00059758  00000-0  49769-2 0  9999,2 49160  70.0018 355.7252 0003342 286.6966  77.0054 14.98302143  3609,6950.279,96.109,574.467,569.821,0.0
49160.0,STARLINK-3095,PAYLOAD,2022-03-18 22:00:00,14.98364636,0.0003412,70.0019,354.8851,287.3634,73.8093,-0.0033732,-0.00040149,0.0,0 STARLINK-3095,1 49160U 21082AG  22077.91667824 -.00040149  00000-0 -33732-2 0  9994,2 49160  70.0019 354.8851 0003412 287.3634  73.8093 14.98364636  3650,6950.0859999999975,96.105,574.322,569.5790000000002,0.0
49160.0,STARLINK-3095,PAYLOAD,2022-03-19 02:00:01,14.98329212,0.000343,70.0018,354.4647,290.8356,249.1615,0.0017225,0.0002052,0.0,0 STARLINK-3095,1 49160U 21082AG  22078.08335648  .00020520  00000-0  17225-2 0  9997,2 49160  70.0018 354.4647 0003430 290.8356 249.1615 14.98329212 29622,6950.195,96.107,574.444,569.6759999999998,0.0
49160.0,STARLINK-3095,PAYLOAD,2022-03-19 14:00:01,14.98299675,0.0003369,70.0017,353.2041,286.6188,69.5698,0.0046922,0.00056302,0.0,0 STARLINK-3095,1 49160U 21082AG  22078.58334491  .00056302  00000-0  46922-2 0  9990,2 49160  70.0017 353.2041 0003369 286.6188  69.5698 14.98299675  3573,6950.2869999999975,96.109,574.493,569.81,0.0
49160.0,STARLINK-3095,PAYLOAD,2022-03-19 22:00:01,14.98356194,0.0003453,70.0018,352.3638,287.9015,65.8162,-0.0031935,-0.00038019,0.0,0 STARLINK-3095,1 49160U 21082AG  22078.91668981 -.00038019  00000-0 -31935-2 0  9996,2 49160  70.0018 352.3638 0003453 287.9015  65.8162 14.98356194 29745,6950.111999999999,96.105,574.377,569.577,0.0
49160.0,STARLINK-3095,PAYLOAD,2022-03-20 14:00:01,14.98312696,0.000329,70.0012,350.68300000000005,287.1184,61.5366,0.0043109,0.00051703,0.0,0 STARLINK-3095,1 49160U 21082AG  22079.58334491  .00051703  00000-0  43109-2 0  9995,2 49160  70.0012 350.6830 0003290 287.1184  61.5366 14.98312696 29841,6950.246,96.108,574.398,569.825,0.0
49160.0,STARLINK-3095,PAYLOAD,2022-03-20 22:00:01,14.98353911,0.00033,70.0014,349.8425,289.2228,56.9823,-0.0041648999999999,-0.00049471,0.0,0 STARLINK-3095,1 49160U 21082AG  22079.91668981 -.00049471  00000-0 -41649-2 0  9994,2 49160  70.0014 349.8425 0003300 289.2228  56.9823 14.98353911  3581,6950.119000000002,96.105,574.2769999999998,569.69,0.0
49160.0,STARLINK-3095,PAYLOAD,2022-03-21 06:00:00,14.98328725,0.0003327,70.0008,349.00199999999984,293.5715,50.0557,0.00039686,4.645e-05,0.0,0 STARLINK-3095,1 49160U 21082AG  22080.25001157  .00004645  00000-0  39686-3 0  9990,2 49160  70.0008 349.0020 0003327 293.5715  50.0557 14.98328725 29947,6950.196999999999,96.107,574.374,569.75,0.0
49160.0,STARLINK-3095,PAYLOAD,2022-03-21 14:00:01,14.98292573,0.0003159,70.0008,348.1615,287.7162,53.4029,0.0059345,0.00071374,0.0,0 STARLINK-3095,1 49160U 21082AG  22080.58334491  .00071374  00000-0  59345-2 0  9992,2 49160  70.0008 348.1615 0003159 287.7162  53.4029 14.98292573  3563,6950.309,96.109,574.369,569.9780000000002,0.0
49160.0,STARLINK-3095,PAYLOAD,2022-03-21 22:00:00,14.98350997,0.0003245,70.001,347.3209,289.4372,49.1482,-0.0025173,-0.00030018,0.0,0 STARLINK-3095,1 49160U 21082AG  22080.91667824 -.00030018  00000-0 -25173-2 0  9992,2 49160  70.0010 347.3209 0003245 289.4372  49.1482 14.98350997  3575,6950.128000000002,96.106,574.248,569.738,0.0
49160.0,STARLINK-3095,PAYLOAD,2022-03-22 14:00:01,14.98283915,0.0003261,70.0004,345.6398,286.2558,47.3305,0.0049752,0.00059708,0.0,0 STARLINK-3095,1 49160U 21082AG  22081.58334491  .00059708  00000-0  49752-2 0  9991,2 49160  70.0004 345.6398 0003261 286.2558  47.3305 14.98283915 30149,6950.335,96.11,574.467,569.934,0.0
49160.0,STARLINK-3095,PAYLOAD,2022-03-22 22:00:01,14.98333873,0.000337,70.0007,344.7992,287.9894,43.1125,-0.0023327,-0.0002782,0.0,0 STARLINK-3095,1 49160U 21082AG  22081.91668981 -.00027820  00000-0 -23327-2 0  9994,2 49160  70.0007 344.7992 0003370 287.9894  43.1125 14.98333873  3585,6950.181,96.107,574.388,569.7040000000002,0.0
49160.0,STARLINK-3095,PAYLOAD,2022-03-23 06:00:00,14.98328425,0.0003457,70.0002,343.9585,291.1696,37.3404,-0.00075123,-9.045e-05,0.0,0 STARLINK-3095,1 49160U 21082AG  22082.25001157 -.00009045  00000-0 -75123-3 0  9999,2 49160  70.0002 343.9585 0003457 291.1696  37.3404 14.98328425 30247,6950.198,96.107,574.465,569.66,0.0
49160.0,STARLINK-3095,PAYLOAD,2022-03-23 14:00:01,14.98288943,0.0003331,70.0003,343.1179,285.3063,40.6942,0.0063934,0.00076955,0.0,0 STARLINK-3095,1 49160U 21082AG  22082.58334491  .00076955  00000-0  63934-2 0  9993,2 49160  70.0003 343.1179 0003331 285.3063  40.6942 14.98288943  3595,6950.32,96.11,574.5,569.87,0.0
49160.0,STARLINK-3095,PAYLOAD,2022-03-23 22:00:00,14.98346566,0.0003412,70.0006,342.2774,287.4741,35.9934,-0.0021835,-0.00026062,0.0,0 STARLINK-3095,1 49160U 21082AG  22082.91667824 -.00026062  00000-0 -21835-2 0  9999,2 49160  70.0006 342.2774 0003412 287.4741  35.9934 14.98346566  3588,6950.142,96.106,574.378,569.635,0.0
49160.0,STARLINK-3095,PAYLOAD,2022-03-24 06:00:00,14.983464,0.0003473,70.0002,341.4367,290.5864,30.3687,-0.0011305,-0.00013562,0.0,0 STARLINK-3095,1 49160U 21082AG  22083.25001157 -.00013562  00000-0 -11305-2 0  9990,2 49160  70.0002 341.4367 0003473 290.5864  30.3687 14.98346400 30391,6950.142,96.106,574.4209999999998,569.5930000000002,0.0
49160.0,STARLINK-3095,PAYLOAD,2022-03-24 14:00:01,14.98315287,0.0003326,70.0004,340.5961,285.0951,33.3657,0.0037624,0.00045073,0.0,0 STARLINK-3095,1 49160U 21082AG  22083.58334491  .00045073  00000-0  37624-2 0  9998,2 49160  70.0004 340.5961 0003326 285.0951  33.3657 14.98315287  3564,6950.238,96.108,574.415,569.7919999999998,0.0
49160.0,STARLINK-3095,PAYLOAD,2022-03-24 22:00:00,14.98337752,0.0003327,70.0006,339.7556,288.1652,27.7857,-0.0025758,-0.000307,0.0,0 STARLINK-3095,1 49160U 21082AG  22083.91667824 -.00030700  00000-0 -25758-2 0  9992,2 49160  70.0006 339.7556 0003327 288.1652  27.7857 14.98337752  3581,6950.169,96.107,574.346,569.722,0.0
49160.0,STARLINK-3095,PAYLOAD,2022-03-25 14:00:01,14.98294338,0.0003217,70.0005,338.0746,285.7889,25.1271,0.0062207999999999,0.00074863,0.0,0 STARLINK-3095,1 49160U 21082AG  22084.58334491  .00074863  00000-0  62208-2 0  9994,2 49160  70.0005 338.0746 0003217 285.7889  25.1271 14.98294338 30591,6950.303000000001,96.109,574.404,569.932,0.0
